SITRO-AIS 12 (SMIRENNIY)
1 57204U 23091AQ  24231.20286327  .00021160  00000+0  12152-2 0  9997
2 57204  97.6099 284.2398 0010591 246.9612 113.0502 15.12495588 62932
SITRO-AIS 11 (SHEFFER)  
1 57208U 23091AU  24231.18486242  .00020641  00000+0  11821-2 0  9991
2 57208  97.6092 284.2514 0010614 247.7002 112.3104 15.12600706 62937
ROBUSTA-1E (ENSO)       
1 58470U 23185J   24231.16468170  .00038653  00000+0  14924-2 0  9994
2 58470  97.4222 297.3232 0012460  65.7901 294.4639 15.26093933 39584
SITRO-AIS 29            
1 59052U 24039B   24231.18270470  .00055279  00000+0  17887-2 0  9990
2 59052  97.3944 192.8358 0015434  10.1036 350.0513 15.31744017 26078
SITRO-AIS 30            
1 59053U 24039C   24231.18535397  .00055493  00000+0  18031-2 0  9993
2 59053  97.3942 192.8272 0015642  10.5699 349.5868 15.31606187 26062
SITRO-AIS 31            
1 59054U 24039D   24231.17267389  .00054981  00000+0  17760-2 0  9995
2 59054  97.3944 192.8452 0015488  10.6094 349.5472 15.31800116 26084
SITRO-AIS 33            
1 59055U 24039E   24231.15907801  .00053983  00000+0  17371-2 0  9993
2 59055  97.3948 192.8705 0015323  12.0385 348.1220 15.31930498 26079
SITRO-AIS 35            
1 59056U 24039F   24231.15452862  .00052496  00000+0  16891-2 0  9990
2 59056  97.3946 192.8729 0015136  12.4911 347.6702 15.31943388 26076
SITRO-AIS 32            
1 59057U 24039G   24231.16631327  .00052701  00000+0  17033-2 0  9995
2 59057  97.3948 192.8596 0015209  12.2031 347.9576 15.31797617 26077
SITRO-AIS 34            
1 59058U 24039H   24231.16014787  .00054937  00000+0  17686-2 0  9998
2 59058  97.3950 192.8707 0015316  12.2534 347.9077 15.31911330 26078
SITRO-AIS 36            
1 59059U 24039J   24231.14769499  .00056599  00000+0  18145-2 0  9991
2 59059  97.3947 192.8825 0014857  12.5592 347.6016 15.32043797 26076
SITRO-AIS 49            
1 59060U 24039K   24231.14995390  .00055065  00000+0  17712-2 0  9990
2 59060  97.3947 192.8796 0014907  11.9672 348.1921 15.31943880 26075
SITRO-AIS 50            
1 59061U 24039L   24231.19957513  .00055093  00000+0  17596-2 0  9992
2 59061  97.3944 192.9646 0014770  12.1795 347.9801 15.32173301 26084
SITRO-AIS 51            
1 59062U 24039M   24231.13419876  .00054847  00000+0  17514-2 0  9998
2 59062  97.3943 192.8989 0014765  12.5341 347.6264 15.32180674 26078
SITRO-AIS 52            
1 59063U 24039N   24231.18941485  .00058538  00000+0  18615-2 0  9994
2 59063  97.3946 192.9803 0014626  12.0147 348.1441 15.32297831 26081
SITRO-AIS 25            
1 59066U 24039R   24231.14172420  .00010541  00000+0  98490-3 0  9990
2 59066  95.3993 139.3421 0171436 129.3369 232.3190 14.83671098 25299
SITRO-AIS 26            
1 59067U 24039S   24231.14269205  .00010600  00000+0  99186-3 0  9998
2 59067  95.3993 139.3403 0171385 129.3639 232.2908 14.83622290 25299
SITRO-AIS 27            
1 59068U 24039T   24231.19369000  .00009956  00000+0  92825-3 0  9993
2 59068  95.3997 139.4055 0170965 128.9647 232.6948 14.83815264 25300
SITRO-AIS 28            
1 59071U 24039U   24231.18937744  .00009795  00000+0  91257-3 0  9991
2 59071  95.3998 139.4110 0170832 128.9441 232.7147 14.83858767 25309
GRBBETA                 
1 60237U 24128C   24230.87041187  .00011061  00000+0  96150-3 0  9994
2 60237  61.9952  26.7058 0012916 314.9390  45.0650 14.97341680  5837
OOV-CUBE (TUBSAT-30)    
1 60240U 24128F   24230.61842836  .00007139  00000+0  63809-3 0  9996
2 60240  61.9987  27.7191 0011643 301.3614  58.6334 14.96663021  5804
ROBUSTA-3A (MEDITERRAN*)
1 60243U 24128J   24231.16616898  .00017392  00000+0  15363-2 0  9990
2 60243  61.9927  25.8995 0013731 289.1646  70.7956 14.96421187  5888
BEIJING 1               
1 28890U 05043A   24231.21711555  .00001551  00000+0  31523-3 0  9996
2 28890  98.2069 353.6497 0014259 208.1343 151.9089 14.62471731  2968
HUANJING 1A (HJ-1A)     
1 33320U 08041A   24231.15579327  .00005230  00000+0  68932-3 0  9995
2 33320  97.6325 235.1255 0020817 164.3203 195.8659 14.80352690859525
HUANJING 1B (HJ-1B)     
1 33321U 08041B   24231.21654091  .00003269  00000+0  42808-3 0  9999
2 33321  97.6270 239.7064 0037399 211.0112 148.8893 14.80547302859552
YAOGAN-4                
1 33446U 08061A   24230.88765503  .00004825  00000+0  64073-3 0  9999
2 33446  97.8788 161.6083 0016669  85.9622 274.3495 14.80149215846685
DEIMOS-1                
1 35681U 09041A   24231.13052365  .00002287  00000+0  35907-3 0  9999
2 35681  97.6826  49.7459 0001861 138.3794 221.7557 14.73510386808432
UK-DMC 2                
1 35683U 09041C   24231.13689775  .00003393  00000+0  52842-3 0  9998
2 35683  97.7891  16.2669 0001101  93.2089 266.9245 14.73591056808137
DMC3-FM1                
1 40715U 15032A   24231.20654309  .00002675  00000+0  32825-3 0  9991
2 40715  97.7408 108.2832 0007320  90.0596 270.1457 14.83892275490771
DMC3-FM2                
1 40716U 15032B   24231.16168222  .00002621  00000+0  32156-3 0  9999
2 40716  97.7460 109.3507 0009217  94.0535 266.1733 14.83900232490769
DMC3-FM3                
1 40717U 15032C   24231.19006018  .00002519  00000+0  30996-3 0  9993
2 40717  97.7509 110.6834 0010696  91.7308 268.5132 14.83807288490774
GSAT0101 (GALILEO-PFM)  
1 37846U 11060A   24228.38170592 -.00000078  00000+0  00000+0 0  9993
2 37846  57.1290 359.9349 0001845  71.8345 288.1902  1.70475836 79818
GSAT0102 (GALILEO-FM2)  
1 37847U 11060B   24229.49057635 -.00000078  00000+0  00000+0 0  9999
2 37847  57.1299 359.9051 0001432 353.4048  12.7299  1.70475278 79718
GSAT0103 (GALILEO-FM3)  
1 38857U 12055A   24229.59430694 -.00000005  00000+0  00000+0 0  9997
2 38857  55.4303 119.9451 0003283 279.3804  80.6432  1.70473610 73598
GSAT0201 (GALILEO 5)    
1 40128U 14050A   24229.99347591 -.00000026  00000+0  00000+0 0  9998
2 40128  49.5963 300.6187 1612858 153.6429 215.5910  1.85519404 65909
GSAT0202 (GALILEO 6)    
1 40129U 14050B   24229.17356841 -.00000027  00000+0  00000+0 0  9998
2 40129  49.6137 299.7293 1611851 154.4078 214.5793  1.85520086 68056
GSAT0203 (GALILEO 7)    
1 40544U 15017A   24229.33400902 -.00000078  00000+0  00000+0 0  9995
2 40544  56.9230 359.8352 0002990 233.8322 126.1436  1.70476043 57784
GSAT0204 (GALILEO 8)    
1 40545U 15017B   24229.00176753 -.00000078  00000+0  00000+0 0  9994
2 40545  56.9302 359.8599 0003319 215.6759 144.3059  1.70475652 58448
GSAT0205 (GALILEO 9)    
1 40889U 15045A   24228.76990644  .00000087  00000+0  00000+0 0  9990
2 40889  55.1936 240.1226 0003064   6.3045 353.7495  1.70473508 55582
GSAT0206 (GALILEO 10)   
1 40890U 15045B   24230.16372811  .00000084  00000+0  00000+0 0  9996
2 40890  55.1923 240.0794 0001786 324.5354  35.4990  1.70473441 55632
GSAT0209 (GALILEO 12)   
1 41174U 15079A   24229.74704928 -.00000005  00000+0  00000+0 0  9993
2 41174  55.4493 119.6508 0003677 334.8217  25.2226  1.70473896 53361
GSAT0208 (GALILEO 11)   
1 41175U 15079B   24229.38025976 -.00000005  00000+0  00000+0 0  9993
2 41175  55.4474 119.6587 0003130 339.1021  20.9454  1.70473745 53776
GSAT0211 (GALILEO 14)   
1 41549U 16030A   24229.50284347  .00000087  00000+0  00000+0 0  9998
2 41549  55.3409 240.1156 0003402 309.9575  50.0616  1.70473588 51251
GSAT0207 (GALILEO 15)   
1 41859U 16069A   24230.04062485 -.00000004  00000+0  00000+0 0  9992
2 41859  55.1138 119.6294 0003918 312.2563  47.7740  1.70473787 47999
GSAT0212 (GALILEO 16)   
1 41860U 16069B   24230.48145959 -.00000003  00000+0  00000+0 0  9999
2 41860  55.1116 119.6132 0002919 356.7643   3.3002  1.70473955 48256
GSAT0213 (GALILEO 17)   
1 41861U 16069C   24229.67683467 -.00000005  00000+0  00000+0 0  9992
2 41861  55.1137 119.6428 0002182 306.9394  53.1021  1.70474302 48105
GSAT0214 (GALILEO 18)   
1 41862U 16069D   24229.23545047 -.00000006  00000+0  00000+0 0  9997
2 41862  55.1127 119.6483 0002220 302.9081  57.1299  1.70473912 48228
GSAT0215 (GALILEO 19)   
1 43055U 17079A   24230.31137779  .00000084  00000+0  00000+0 0  9990
2 43055  55.3175 239.9142 0003556 263.5369  96.4679  1.70474224 41588
GSAT0216 (GALILEO 20)   
1 43056U 17079B   24229.42987248  .00000087  00000+0  00000+0 0  9998
2 43056  55.3187 239.9384 0004940 272.3464  87.6458  1.70474375 41586
GSAT0217 (GALILEO 21)   
1 43057U 17079C   24230.82351692  .00000081  00000+0  00000+0 0  9997
2 43057  55.3157 239.8986 0004192 283.1089  76.8867  1.70474294 41598
GSAT0218 (GALILEO 22)   
1 43058U 17079D   24229.28383955  .00000087  00000+0  00000+0 0  9999
2 43058  55.3168 239.9386 0005440 269.3061  90.6806  1.70474303 41564
GSAT0221 (GALILEO 25)   
1 43564U 18060A   24230.35805197 -.00000079  00000+0  00000+0 0  9991
2 43564  57.3038 359.8233 0002756 261.2788  98.6918  1.70476027 37765
GSAT0222 (GALILEO 26)   
1 43565U 18060B   24229.99007718 -.00000078  00000+0  00000+0 0  9992
2 43565  57.3080 359.8351 0003257 218.1043 141.8750  1.70475812 37807
GSAT0219 (GALILEO 23)   
1 43566U 18060C   24228.45211500 -.00000077  00000+0  00000+0 0  9998
2 43566  57.3068 359.8782 0001759 267.6589  92.3254  1.70476095 37758
GSAT0220 (GALILEO 24)   
1 43567U 18060D   24229.84593601 -.00000078  00000+0  00000+0 0  9999
2 43567  57.3067 359.8417 0002073 259.9014 100.0776  1.70475828 37759
GSAT0223 (GALILEO 27)   
1 49809U 21116A   24229.71404282 -.00000078  00000+0  00000+0 0  9992
2 49809  57.2978 359.7391 0003025 182.3464 187.1562  1.70476024 16777
GSAT0224 (GALILEO 28)   
1 49810U 21116B   24229.51685649 -.00000078  00000+0  00000+0 0  9990
2 49810  57.2980 359.7428 0002583 170.3857 190.6127  1.70476078 16791
GSAT0225 (GALILEO 29)   
1 59598U 24079A   24229.23872514 -.00000007  00000+0  00000+0 0  9995
2 59598  54.7300 119.8304 0001479 206.5387 334.5044  1.70474147  1891
GSAT0227 (GALILEO 30)   
1 59600U 24079C   24229.71372239 -.00000006  00000+0  00000+0 0  9990
2 59600  54.7255 119.8171 0002380 100.0518 260.0360  1.70474056  1952
